[{"OBJECT_NAME":"STARLINK-3339","OBJECT_ID":"2022-001T","EPOCH":"2026-03-09T13:14:39.663744","MEAN_MOTION":15.08839787,"ECCENTRICITY":0.00012607,"INCLINATION":53.2178,"RA_OF_ASC_NODE":169.7391,"ARG_OF_PERICENTER":106.5177,"MEAN_ANOMALY":253.5954,"EPHEMERIS_TYPE":0,"CLASSIFICATION_TYPE":"U","NORAD_CAT_ID":50820,"ELEMENT_SET_NO":999,"REV_AT_EPOCH":23038,"BSTAR":-3.018521e-6,"MEAN_MOTION_DOT":-3.36e-6,"MEAN_MOTION_DDOT":0},{"OBJECT_NAME":"FENGYUN 1C DEB","OBJECT_ID":"1999-025CXF","EPOCH":"2026-03-07T13:12:42.532128","MEAN_MOTION":14.81371774,"ECCENTRICITY":0.0143567,"INCLINATION":98.862,"RA_OF_ASC_NODE":185.4298,"ARG_OF_PERICENTER":249.2966,"MEAN_ANOMALY":109.2805,"EPHEMERIS_TYPE":0,"CLASSIFICATION_TYPE":"U","NORAD_CAT_ID":32314,"ELEMENT_SET_NO":999,"REV_AT_EPOCH":98685,"BSTAR":0.0017862,"MEAN_MOTION_DOT":0.00016648,"MEAN_MOTION_DDOT":0}]
